[{"OBJECT_NAME":"GAOFEN-14 02","OBJECT_ID":"2025-242A","EPOCH":"2026-03-09T22:45:15.300864","MEAN_MOTION":15.2569294,"ECCENTRICITY":9.85e-5,"INCLINATION":97.4192,"RA_OF_ASC_NODE":145.3638,"ARG_OF_PERICENTER":335.9045,"MEAN_ANOMALY":24.2147,"EPHEMERIS_TYPE":0,"CLASSIFICATION_TYPE":"U","NORAD_CAT_ID":66175,"ELEMENT_SET_NO":999,"REV_AT_EPOCH":2056,"BSTAR":0.00036713829,"MEAN_MOTION_DOT":9.284e-5,"MEAN_MOTION_DDOT":0},{"OBJECT_NAME":"COSMOS 1953","OBJECT_ID":"1988-050A","EPOCH":"2026-03-09T18:09:26.993952","MEAN_MOTION":15.28528086,"ECCENTRICITY":0.00124769,"INCLINATION":82.5105,"RA_OF_ASC_NODE":158.18,"ARG_OF_PERICENTER":122.2454,"MEAN_ANOMALY":237.9996,"EPHEMERIS_TYPE":0,"CLASSIFICATION_TYPE":"U","NORAD_CAT_ID":19210,"ELEMENT_SET_NO":999,"REV_AT_EPOCH":3779,"BSTAR":0.00029210954,"MEAN_MOTION_DOT":8.158e-5,"MEAN_MOTION_DDOT":0}]
